[{"OBJECT_NAME":"ONEWEB-0373","OBJECT_ID":"2021-090W","EPOCH":"2026-03-09T15:27:10.793952","MEAN_MOTION":13.2077077,"ECCENTRICITY":0.0001624,"INCLINATION":87.9164,"RA_OF_ASC_NODE":294.3218,"ARG_OF_PERICENTER":81.3405,"MEAN_ANOMALY":278.7912,"EPHEMERIS_TYPE":0,"CLASSIFICATION_TYPE":"U","NORAD_CAT_ID":49299,"ELEMENT_SET_NO":999,"REV_AT_EPOCH":21788,"BSTAR":0.00014067,"MEAN_MOTION_DOT":7.0e-7,"MEAN_MOTION_DDOT":0},{"OBJECT_NAME":"COSMOS 2499 DEB","OBJECT_ID":"2014-028CD","EPOCH":"2026-03-08T05:19:31.924128","MEAN_MOTION":13.24714875,"ECCENTRICITY":0.00604069,"INCLINATION":82.2076,"RA_OF_ASC_NODE":248.8379,"ARG_OF_PERICENTER":27.7046,"MEAN_ANOMALY":332.7276,"EPHEMERIS_TYPE":0,"CLASSIFICATION_TYPE":"U","NORAD_CAT_ID":60617,"ELEMENT_SET_NO":999,"REV_AT_EPOCH":13563,"BSTAR":0.013466561,"MEAN_MOTION_DOT":5.879e-5,"MEAN_MOTION_DDOT":0}]
